ALOS (DAICHI)           
1 28931U 06002A   24088.86746141  .00002665  00000+0  50223-3 0  9993
2 28931  98.0293  43.7088 0002362  71.6498 288.4963 14.65331677969584
